{"fetched_at":"2026-07-06T08:47:19.709Z","source":"https://celestrak.org/NORAD/elements/gp.php?NAME=SENTINEL&FORMAT=JSON","constellation":"sentinel-3","records":[{"OBJECT_NAME":"SENTINEL-3A","OBJECT_ID":"2016-011A","EPOCH":"2026-07-05T09:07:29.985024","CLASSIFICATION_TYPE":"U","MEAN_MOTION":14.2673807,"ECCENTRICITY":0.0001424,"INCLINATION":98.6241,"RA_OF_ASC_NODE":253.5019,"ARG_OF_PERICENTER":93.3626,"MEAN_ANOMALY":266.7718,"EPHEMERIS_TYPE":0,"NORAD_CAT_ID":41335,"ELEMENT_SET_NO":999,"REV_AT_EPOCH":54065,"BSTAR":0.00008358,"MEAN_MOTION_DOT":0.00000159,"MEAN_MOTION_DDOT":0},{"OBJECT_NAME":"SENTINEL-3B","OBJECT_ID":"2018-039A","EPOCH":"2026-07-05T05:06:50.233824","CLASSIFICATION_TYPE":"U","MEAN_MOTION":14.26740289,"ECCENTRICITY":0.0000921,"INCLINATION":98.624,"RA_OF_ASC_NODE":253.4861,"ARG_OF_PERICENTER":117.0798,"MEAN_ANOMALY":243.0476,"EPHEMERIS_TYPE":0,"NORAD_CAT_ID":43437,"ELEMENT_SET_NO":999,"REV_AT_EPOCH":42669,"BSTAR":0.000085603,"MEAN_MOTION_DOT":0.00000164,"MEAN_MOTION_DDOT":0}]}
