{
  "generated_at": "2026-07-13T07:11:34Z",
  "source": "CelesTrak SATCAT gp.php?GROUP=active (HEAD cache, no fetch)",
  "schema_version": "1.0",
  "records": [
    {
      "name": "SENTINEL-3A",
      "norad_id": 41335,
      "intl_designator": "16011-261",
      "line1": "1 41335U 16011A   26186.38020816  .00000159  00000+0  83580-4 0  9998",
      "line2": "2 41335  98.6241 253.5019 0001424  93.3626 266.7718 14.26738070540658",
      "category": "weather"
    },
    {
      "name": "SENTINEL-3B",
      "norad_id": 43437,
      "intl_designator": "18039-261",
      "line1": "1 43437U 18039A   26186.21308141  .00000164  00000+0  85603-4 0  9991",
      "line2": "2 43437  98.6240 253.4861 0000921 117.0798 243.0476 14.26740289426692",
      "category": "weather"
    }
  ]
}